[{"OBJECT_NAME":"STARLINK-31277","OBJECT_ID":"2024-082W","EPOCH":"2026-03-09T12:18:18.609696","MEAN_MOTION":15.27558795,"ECCENTRICITY":6.19e-5,"INCLINATION":43.0003,"RA_OF_ASC_NODE":140.9135,"ARG_OF_PERICENTER":200.516,"MEAN_ANOMALY":159.5667,"EPHEMERIS_TYPE":0,"CLASSIFICATION_TYPE":"U","NORAD_CAT_ID":59651,"ELEMENT_SET_NO":999,"REV_AT_EPOCH":10498,"BSTAR":-8.2603e-5,"MEAN_MOTION_DOT":-2.532e-5,"MEAN_MOTION_DDOT":0},{"OBJECT_NAME":"THOR AGENA B DEB","OBJECT_ID":"1965-098F","EPOCH":"2026-03-09T22:45:15.729408","MEAN_MOTION":13.60223409,"ECCENTRICITY":0.07538154,"INCLINATION":79.8484,"RA_OF_ASC_NODE":20.4001,"ARG_OF_PERICENTER":143.1562,"MEAN_ANOMALY":222.3913,"EPHEMERIS_TYPE":0,"CLASSIFICATION_TYPE":"U","NORAD_CAT_ID":1948,"ELEMENT_SET_NO":999,"REV_AT_EPOCH":79567,"BSTAR":0.00090419941,"MEAN_MOTION_DOT":4.962e-5,"MEAN_MOTION_DDOT":0}]
